{"fetched_at":"2026-07-16T17:46:07.288Z","source":"https://celestrak.org/NORAD/elements/gp.php?GROUP=planet&FORMAT=JSON","constellation":"superdove","records":[{"OBJECT_NAME":"FLOCK 4G-33","OBJECT_ID":"2025-009CE","EPOCH":"2026-07-16T04:08:36.534912","CLASSIFICATION_TYPE":"U","MEAN_MOTION":15.2580472,"ECCENTRICITY":0.00047878,"INCLINATION":97.3944,"RA_OF_ASC_NODE":276.7158,"ARG_OF_PERICENTER":210.0036,"MEAN_ANOMALY":150.0928,"EPHEMERIS_TYPE":0,"NORAD_CAT_ID":62685,"ELEMENT_SET_NO":999,"REV_AT_EPOCH":8322,"BSTAR":0.00012544766,"MEAN_MOTION_DOT":0.00003134,"MEAN_MOTION_DDOT":0},{"OBJECT_NAME":"FLOCK 4H-1","OBJECT_ID":"2025-276AQ","EPOCH":"2026-07-16T03:11:21.283008","CLASSIFICATION_TYPE":"U","MEAN_MOTION":15.20857725,"ECCENTRICITY":0.00021016,"INCLINATION":97.417,"RA_OF_ASC_NODE":270.3648,"ARG_OF_PERICENTER":171.1022,"MEAN_ANOMALY":189.0251,"EPHEMERIS_TYPE":0,"NORAD_CAT_ID":66704,"ELEMENT_SET_NO":999,"REV_AT_EPOCH":3483,"BSTAR":0.00014639619,"MEAN_MOTION_DOT":0.00003164,"MEAN_MOTION_DDOT":0},{"OBJECT_NAME":"FLOCK 4H-2","OBJECT_ID":"2025-276AR","EPOCH":"2026-07-16T05:42:41.571360","CLASSIFICATION_TYPE":"U","MEAN_MOTION":15.21129693,"ECCENTRICITY":0.00015673,"INCLINATION":97.4166,"RA_OF_ASC_NODE":270.5173,"ARG_OF_PERICENTER":152.3285,"MEAN_ANOMALY":207.8035,"EPHEMERIS_TYPE":0,"NORAD_CAT_ID":66705,"ELEMENT_SET_NO":999,"REV_AT_EPOCH":3485,"BSTAR":0.0001491669,"MEAN_MOTION_DOT":0.00003251,"MEAN_MOTION_DDOT":0},{"OBJECT_NAME":"FLOCK 4H-3","OBJECT_ID":"2025-276AS","EPOCH":"2026-07-16T03:54:25.258176","CLASSIFICATION_TYPE":"U","MEAN_MOTION":15.20250112,"ECCENTRICITY":0.00025032,"INCLINATION":97.4234,"RA_OF_ASC_NODE":270.3676,"ARG_OF_PERICENTER":242.8657,"MEAN_ANOMALY":117.2323,"EPHEMERIS_TYPE":0,"NORAD_CAT_ID":66706,"ELEMENT_SET_NO":999,"REV_AT_EPOCH":3482,"BSTAR":0.00015868774,"MEAN_MOTION_DOT":0.00003374,"MEAN_MOTION_DDOT":0},{"OBJECT_NAME":"FLOCK 4H-4","OBJECT_ID":"2025-276AT","EPOCH":"2026-07-16T04:46:33.179232","CLASSIFICATION_TYPE":"U","MEAN_MOTION":15.20042435,"ECCENTRICITY":0.00031889,"INCLINATION":97.4216,"RA_OF_ASC_NODE":270.2698,"ARG_OF_PERICENTER":249.157,"MEAN_ANOMALY":110.9324,"EPHEMERIS_TYPE":0,"NORAD_CAT_ID":66707,"ELEMENT_SET_NO":999,"REV_AT_EPOCH":3482,"BSTAR":0.00015928804,"MEAN_MOTION_DOT":0.00003367,"MEAN_MOTION_DDOT":0},{"OBJECT_NAME":"FLOCK 4H-5","OBJECT_ID":"2025-276AU","EPOCH":"2026-07-16T04:34:54.623136","CLASSIFICATION_TYPE":"U","MEAN_MOTION":15.20909097,"ECCENTRICITY":0.0001418,"INCLINATION":97.4167,"RA_OF_ASC_NODE":270.4433,"ARG_OF_PERICENTER":134.6504,"MEAN_ANOMALY":225.4847,"EPHEMERIS_TYPE":0,"NORAD_CAT_ID":66708,"ELEMENT_SET_NO":999,"REV_AT_EPOCH":3484,"BSTAR":0.00013715796,"MEAN_MOTION_DOT":0.00002964,"MEAN_MOTION_DDOT":0},{"OBJECT_NAME":"FLOCK 4H-6","OBJECT_ID":"2025-276AV","EPOCH":"2026-07-16T05:41:23.207424","CLASSIFICATION_TYPE":"U","MEAN_MOTION":15.20611154,"ECCENTRICITY":0.00025907,"INCLINATION":97.422,"RA_OF_ASC_NODE":270.5323,"ARG_OF_PERICENTER":200.1681,"MEAN_ANOMALY":159.9452,"EPHEMERIS_TYPE":0,"NORAD_CAT_ID":66709,"ELEMENT_SET_NO":999,"REV_AT_EPOCH":3484,"BSTAR":0.00014923712,"MEAN_MOTION_DOT":0.00003203,"MEAN_MOTION_DDOT":0},{"OBJECT_NAME":"FLOCK 4H-7","OBJECT_ID":"2025-276AW","EPOCH":"2026-07-16T03:40:36.585408","CLASSIFICATION_TYPE":"U","MEAN_MOTION":15.20386387,"ECCENTRICITY":0.00006716,"INCLINATION":97.4178,"RA_OF_ASC_NODE":270.2065,"ARG_OF_PERICENTER":287.8233,"MEAN_ANOMALY":72.2929,"EPHEMERIS_TYPE":0,"NORAD_CAT_ID":66710,"ELEMENT_SET_NO":999,"REV_AT_EPOCH":3482,"BSTAR":0.00017712805,"MEAN_MOTION_DOT":0.00003789,"MEAN_MOTION_DDOT":0},{"OBJECT_NAME":"FLOCK 4H-8","OBJECT_ID":"2025-276AX","EPOCH":"2026-07-16T03:27:23.867136","CLASSIFICATION_TYPE":"U","MEAN_MOTION":15.20494112,"ECCENTRICITY":0.00019002,"INCLINATION":97.4217,"RA_OF_ASC_NODE":270.3479,"ARG_OF_PERICENTER":266.1511,"MEAN_ANOMALY":93.9508,"EPHEMERIS_TYPE":0,"NORAD_CAT_ID":66711,"ELEMENT_SET_NO":999,"REV_AT_EPOCH":3482,"BSTAR":0.0001690526,"MEAN_MOTION_DOT":0.00003625,"MEAN_MOTION_DDOT":0},{"OBJECT_NAME":"FLOCK 4H-9","OBJECT_ID":"2025-276AY","EPOCH":"2026-07-16T03:47:00.517632","CLASSIFICATION_TYPE":"U","MEAN_MOTION":15.20794629,"ECCENTRICITY":0.00025792,"INCLINATION":97.4208,"RA_OF_ASC_NODE":270.4561,"ARG_OF_PERICENTER":209.7019,"MEAN_ANOMALY":150.407,"EPHEMERIS_TYPE":0,"NORAD_CAT_ID":66712,"ELEMENT_SET_NO":999,"REV_AT_EPOCH":3483,"BSTAR":0.00017251786,"MEAN_MOTION_DOT":0.00003734,"MEAN_MOTION_DDOT":0},{"OBJECT_NAME":"FLOCK 4H-10","OBJECT_ID":"2025-276AZ","EPOCH":"2026-07-16T04:23:29.962752","CLASSIFICATION_TYPE":"U","MEAN_MOTION":15.2017005,"ECCENTRICITY":0.00030003,"INCLINATION":97.4184,"RA_OF_ASC_NODE":270.1892,"ARG_OF_PERICENTER":249.8688,"MEAN_ANOMALY":110.2224,"EPHEMERIS_TYPE":0,"NORAD_CAT_ID":66713,"ELEMENT_SET_NO":999,"REV_AT_EPOCH":3482,"BSTAR":0.00015214279,"MEAN_MOTION_DOT":0.00003225,"MEAN_MOTION_DDOT":0},{"OBJECT_NAME":"FLOCK 4H-11","OBJECT_ID":"2025-276BA","EPOCH":"2026-07-16T04:56:39.744384","CLASSIFICATION_TYPE":"U","MEAN_MOTION":15.23343027,"ECCENTRICITY":0.00015126,"INCLINATION":97.419,"RA_OF_ASC_NODE":270.8101,"ARG_OF_PERICENTER":238.6561,"MEAN_ANOMALY":121.4528,"EPHEMERIS_TYPE":0,"NORAD_CAT_ID":66714,"ELEMENT_SET_NO":999,"REV_AT_EPOCH":3486,"BSTAR":0.00030634773,"MEAN_MOTION_DOT":0.00007208,"MEAN_MOTION_DDOT":0},{"OBJECT_NAME":"FLOCK 4H-12","OBJECT_ID":"2025-276BB","EPOCH":"2026-07-16T05:03:04.878432","CLASSIFICATION_TYPE":"U","MEAN_MOTION":15.20822321,"ECCENTRICITY":0.00020118,"INCLINATION":97.4182,"RA_OF_ASC_NODE":270.444,"ARG_OF_PERICENTER":177.7512,"MEAN_ANOMALY":182.3733,"EPHEMERIS_TYPE":0,"NORAD_CAT_ID":66715,"ELEMENT_SET_NO":999,"REV_AT_EPOCH":3515,"BSTAR":0.00016412265,"MEAN_MOTION_DOT":0.00003551,"MEAN_MOTION_DDOT":0},{"OBJECT_NAME":"FLOCK 4H-13","OBJECT_ID":"2025-276BC","EPOCH":"2026-07-16T04:20:39.677856","CLASSIFICATION_TYPE":"U","MEAN_MOTION":15.20923686,"ECCENTRICITY":0.00019847,"INCLINATION":97.4214,"RA_OF_ASC_NODE":270.5889,"ARG_OF_PERICENTER":142.1615,"MEAN_ANOMALY":217.9761,"EPHEMERIS_TYPE":0,"NORAD_CAT_ID":66716,"ELEMENT_SET_NO":999,"REV_AT_EPOCH":3484,"BSTAR":0.00016172766,"MEAN_MOTION_DOT":0.00003509,"MEAN_MOTION_DDOT":0},{"OBJECT_NAME":"FLOCK 4H-14","OBJECT_ID":"2025-276BD","EPOCH":"2026-07-16T04:58:00.684768","CLASSIFICATION_TYPE":"U","MEAN_MOTION":15.21372136,"ECCENTRICITY":0.00018383,"INCLINATION":97.4198,"RA_OF_ASC_NODE":270.6615,"ARG_OF_PERICENTER":140.7191,"MEAN_ANOMALY":219.4179,"EPHEMERIS_TYPE":0,"NORAD_CAT_ID":66717,"ELEMENT_SET_NO":999,"REV_AT_EPOCH":3410,"BSTAR":0.00016260321,"MEAN_MOTION_DOT":0.00003576,"MEAN_MOTION_DDOT":0},{"OBJECT_NAME":"FLOCK 4H-15","OBJECT_ID":"2025-276BE","EPOCH":"2026-07-16T03:37:52.288032","CLASSIFICATION_TYPE":"U","MEAN_MOTION":15.19889782,"ECCENTRICITY":0.00026638,"INCLINATION":97.4212,"RA_OF_ASC_NODE":270.1633,"ARG_OF_PERICENTER":270.1556,"MEAN_ANOMALY":89.9374,"EPHEMERIS_TYPE":0,"NORAD_CAT_ID":66718,"ELEMENT_SET_NO":999,"REV_AT_EPOCH":3481,"BSTAR":0.00018429558,"MEAN_MOTION_DOT":0.00003889,"MEAN_MOTION_DDOT":0}]}
