FLOCK 4G-33             
1 62685U 25009CE  26197.17264508  .00003134  00000+0  12545-3 0  9991
2 62685  97.3944 276.7158 0004787 210.0036 150.0928 15.25804720 83223
FLOCK 4H-1              
1 66704U 25276AQ  26197.13288522  .00003164  00000+0  14640-3 0  9992
2 66704  97.4170 270.3648 0002101 171.1022 189.0251 15.20857725 34837
FLOCK 4H-2              
1 66705U 25276AR  26197.23798115  .00003251  00000+0  14917-3 0  9992
2 66705  97.4166 270.5173 0001567 152.3285 207.8035 15.21129693 34853
FLOCK 4H-3              
1 66706U 25276AS  26197.16279234  .00003374  00000+0  15869-3 0  9994
2 66706  97.4234 270.3676 0002503 242.8657 117.2323 15.20250112 34826
FLOCK 4H-4              
1 66707U 25276AT  26197.19899513  .00003367  00000+0  15929-3 0  9995
2 66707  97.4216 270.2698 0003188 249.1570 110.9324 15.20042435 34822
FLOCK 4H-5              
1 66708U 25276AU  26197.19090999  .00002964  00000+0  13716-3 0  9991
2 66708  97.4167 270.4433 0001418 134.6504 225.4847 15.20909097 34846
FLOCK 4H-6              
1 66709U 25276AV  26197.23707416  .00003203  00000+0  14924-3 0  9995
2 66709  97.4220 270.5323 0002590 200.1681 159.9452 15.20611154 34840
FLOCK 4H-7              
1 66710U 25276AW  26197.15320122  .00003789  00000+0  17713-3 0  9991
2 66710  97.4178 270.2065 0000671 287.8233  72.2929 15.20386387 34828
FLOCK 4H-8              
1 66711U 25276AX  26197.14402624  .00003625  00000+0  16905-3 0  9990
2 66711  97.4217 270.3479 0001900 266.1511  93.9508 15.20494112 34827
FLOCK 4H-9              
1 66712U 25276AY  26197.15764488  .00003734  00000+0  17252-3 0  9998
2 66712  97.4208 270.4561 0002579 209.7019 150.4070 15.20794629 34830
FLOCK 4H-10             
1 66713U 25276AZ  26197.18298568  .00003225  00000+0  15214-3 0  9994
2 66713  97.4184 270.1892 0003000 249.8688 110.2224 15.20170050 34825
FLOCK 4H-11             
1 66714U 25276BA  26197.20601556  .00007208  00000+0  30635-3 0  9992
2 66714  97.4190 270.8101 0001512 238.6561 121.4528 15.23343027 34869
FLOCK 4H-12             
1 66715U 25276BB  26197.21047313  .00003551  00000+0  16412-3 0  9993
2 66715  97.4182 270.4440 0002011 177.7512 182.3733 15.20822321 35150
FLOCK 4H-13             
1 66716U 25276BC  26197.18101479  .00003509  00000+0  16173-3 0  9991
2 66716  97.4214 270.5889 0001984 142.1615 217.9761 15.20923686 34840
FLOCK 4H-14             
1 66717U 25276BD  26197.20695237  .00003576  00000+0  16260-3 0  9996
2 66717  97.4198 270.6615 0001838 140.7191 219.4179 15.21372136 34109
FLOCK 4H-15             
1 66718U 25276BE  26197.15129963  .00003889  00000+0  18430-3 0  9997
2 66718  97.4212 270.1633 0002663 270.1556  89.9374 15.19889782 34814
